STARLINK-34218          
1 64338U 25124X   26019.33198781  .00028812  00000+0  10521-2 0  9997
2 64338  43.0003  36.8401 0001219 259.7820 100.2894 15.27591110 34276
STARLINK-34017          
1 64339U 25124Y   26019.34306616  .00030793  00000+0  11232-2 0  9998
2 64339  43.0002  40.3783 0001354 268.7232  91.3465 15.27599865 34231
QPS-SAR-11 (YAMATSUMI-I)
1 64340U 25125A   26019.12383084  .00005130  00000+0  42089-3 0  9993
2 64340  42.0093 292.7258 0010162 249.9404 110.0328 14.99889394 33223
STARLINK-33977          
1 64344U 25126A   26019.08757869  .00004120  00000+0  35278-3 0  9999
2 64344  70.0031 159.4579 0003413 268.6356  91.4412 14.98341723 34461
STARLINK-34426          
1 64345U 25126B   26019.08324579  .00004682  00000+0  39982-3 0  9997
2 64345  70.0013 159.4391 0003331 268.4553  91.6224 14.98335661 33253
STARLINK-34437          
1 64346U 25126C   26019.11246709  .00003077  00000+0  26552-3 0  9996
2 64346  70.0019 159.5426 0002458 273.1732  86.9146 14.98333992 33256
STARLINK-34407          
1 64347U 25126D   26019.11680706  .00004577  00000+0  39109-3 0  9994
2 64347  70.0014 159.5533 0003266 270.7064  89.3721 14.98331251 33252
STARLINK-34274          
1 64348U 25126E   26019.12916403  .00002811  00000+0  24323-3 0  9993
2 64348  70.0016 159.6014 0003269 269.2218  90.8567 14.98331736 33250
STARLINK-34301          
1 64349U 25126F   26018.82038351  .00008425  00000+0  71254-3 0  9999
2 64349  70.0010 160.1257 0003314 278.4733  81.6050 14.98355563 33211
STARLINK-34425          
1 64350U 25126G   26019.10828896  .00006249  00000+0  53087-3 0  9990
2 64350  70.0028 159.5240 0003496 270.8171  89.2588 14.98338623 33251
STARLINK-34389          
1 64351U 25126H   26019.09594814  .00048973  00000+0  40876-2 0  9990
2 64351  70.0018 159.4779 0003445 263.5283  96.5484 14.98290036 33255
STARLINK-34385          
1 64352U 25126J   26019.12081408  .00004555  00000+0  38916-3 0  9996
2 64352  70.0028 159.5705 0003021 269.8091  90.2722 14.98340821 33257
STARLINK-34431          
1 64353U 25126K   26019.08341972  .00006221  00000+0  52838-3 0  9998
2 64353  70.0021 159.4419 0003289 271.9721  88.1062 14.98352373 33250
STARLINK-34473          
1 64354U 25126L   26019.33335648  .00042688  00000+0  35643-2 0  9991
2 64354  70.0014 158.8842 0003629 268.0584 293.1919 14.98321445  5779
STARLINK-34270          
1 64355U 25126M   26019.09994316  .00002099  00000+0  18360-3 0  9998
2 64355  70.0025 159.4969 0003066 269.6525  90.4282 14.98332102 34467
STARLINK-34397          
1 64356U 25126N   26019.12498832  .00003148  00000+0  27144-3 0  9991
2 64356  70.0017 159.5823 0003253 270.1377  89.9409 14.98333536 33251
STARLINK-34454          
1 64357U 25126P   26019.32960474  .00003867  00000+0  33161-3 0  9994
2 64357  70.0019 159.0906 0003239 276.3966  83.6824 14.98338613 33283
STARLINK-34436          
1 64358U 25126Q   26019.33335648  .00045928  00000+0  38338-2 0  9999
2 64358  70.0013 158.7534 0003054 265.2471  47.6675 14.98310160  5677
STARLINK-34291          
1 64359U 25126R   26019.09175890  .00002390  00000+0  20798-3 0  9992
2 64359  70.0020 159.4620 0003225 289.2928  70.7882 14.98334011 33256
STARLINK-34458          
1 64360U 25126S   26019.10010771  .00005693  00000+0  48450-3 0  9996
2 64360  70.0015 159.4931 0003315 290.2526  69.8277 14.98332869 33259
STARLINK-34243          
1 64361U 25126T   26019.10411874  .00002964  00000+0  25606-3 0  9992
2 64361  70.0025 159.5112 0002510 274.1886  85.8987 14.98333626 33257
STARLINK-34335          
1 64362U 25126U   26018.81202993  .00002048  00000+0  17935-3 0  9999
2 64362  70.0019 160.0968 0003139 274.4315  85.6486 14.98336108 33211
STARLINK-34408          
1 64363U 25126V   26018.80366949 -.00002812  00000+0 -22797-3 0  9994
2 64363  70.0013 160.0664 0002981 276.7811  83.3009 14.98335103 33219
STARLINK-34476          
1 64364U 25126W   26019.09159461  .00002445  00000+0  21258-3 0  9997
2 64364  70.0021 159.4660 0003111 271.0300  89.0502 14.98333833 33257
STARLINK-34479          
1 64365U 25126X   26019.13333603  .00003126  00000+0  26964-3 0  9991
2 64365  70.0014 159.6102 0003077 271.3513  88.7294 14.98335104 33250
STARLINK-34484          
1 64366U 25126Y   26019.00003472 -.00046877  00000+0 -39464-2 0  9996
2 64366  70.0011 159.5926 0003487 273.5699  42.8543 14.98336336  5777
STARLINK-34483          
1 64367U 25126Z   26018.81219664  .00002122  00000+0  18555-3 0  9999
2 64367  70.0016 160.0914 0003294 271.7605  88.3177 14.98334246 33216
STARLINK-34457          
1 64368U 25126AA  26018.78284327  .00005525  00000+0  47046-3 0  9991
2 64368  70.0013 160.3930 0002708 267.8314  92.2535 14.98330035 33200
STARLINK-34444          
1 64369U 25126AB  26018.78718024  .00001717  00000+0  15167-3 0  9996
2 64369  70.0015 160.4093 0003251 274.8518  85.2270 14.98326072 33206
STARLINK-11732 [DTC]    
1 64370U 25127A   26019.29804174  .00164095  00000+0  12536-2 0  9993
2 64370  42.9991  22.3177 0001057 255.7145 104.3606 15.70908357 35733
STARLINK-11731 [DTC]    
1 64371U 25127B   26019.05964015  .00263535  00000+0  19922-2 0  9994
2 64371  42.9988  23.9780 0001921 269.1507  90.9140 15.70848143 35692
STARLINK-11746 [DTC]    
1 64372U 25127C   26019.28211232  .00279123  00000+0  20967-2 0  9997
2 64372  43.0003  22.1885 0000936 201.8850 158.1978 15.70951379 35736
STARLINK-11748 [DTC]    
1 64373U 25127D   26018.30817630  .00217832  00000+0  16539-2 0  9993
2 64373  42.9987  28.6704 0000764 247.0400 113.0387 15.70883851 35574
STARLINK-11739 [DTC]    
1 64374U 25127E   26019.07544049  .00321114  00000+0  23953-2 0  9997
2 64374  43.0002  23.2099 0003494 282.7254  77.3223 15.70989563 35702
STARLINK-11738 [DTC]    
1 64375U 25127F   26019.07025947  .00258879  00000+0  19509-2 0  9998
2 64375  43.0010  24.0613 0004569 288.2052  71.8318 15.70930102 35691
STARLINK-11745 [DTC]    
1 64376U 25127G   26019.29273243  .00176803  00000+0  13488-2 0  9993
2 64376  42.9998  22.2725 0001348 263.2020  96.8694 15.70900680 35736
STARLINK-11742 [DTC]    
1 64377U 25127H   26019.30866294  .00278221  00000+0  20937-2 0  9994
2 64377  43.0008  22.4003 0006246 279.1173  80.8988 15.70895625 35730
STARLINK-11711 [DTC]    
1 64378U 25127J   26019.27680603  .00341308  00000+0  25465-2 0  9997
2 64378  43.0008  22.1439 0001119 217.9008 142.1781 15.70924835 35843
STARLINK-11743 [DTC]    
1 64379U 25127K   26019.06494932  .00278346  00000+0  20986-2 0  9997
2 64379  43.0002  24.0180 0002635 280.4205  79.6366 15.70865534 35696
STARLINK-11744 [DTC]    
1 64380U 25127L   26019.30335173  .00222370  00000+0  16870-2 0  9990
2 64380  42.9995  22.3554 0001240 253.0606 107.0126 15.70889057 35736
STARLINK-11692 [DTC]    
1 64381U 25127M   26019.28742464  .00308018  00000+0  23004-2 0  9994
2 64381  43.0004  22.2282 0001055 230.1488 129.9287 15.71001641 35844
STARLINK-11740 [DTC]    
1 64382U 25127N   26019.27149656  .00318239  00000+0  23829-2 0  9999
2 64382  43.0003  22.0991 0001226 205.6374 154.4433 15.70909570 35731
STARLINK-34299          
1 64383U 25127P   26019.26407138  .00035226  00000+0  12832-2 0  9995
2 64383  43.0012  99.3001 0001229 249.6465 110.4254 15.27587532 34850
STARLINK-34271          
1 64384U 25127Q   26019.25250940  .00026488  00000+0  96841-3 0  9995
2 64384  42.9998  99.2102 0001015 294.5655  65.5091 15.27587605 34902
STARLINK-34100          
1 64385U 25127R   26019.25635963  .00037053  00000+0  13486-2 0  9991
2 64385  43.0004  99.2419 0001566 262.3428  97.7245 15.27596669 34858
STARLINK-34269          
1 64386U 25127S   26019.21010281  .00025884  00000+0  94663-3 0  9994
2 64386  43.0012  98.8809 0001163 275.7031  84.3688 15.27586511 34901
STARLINK-34351          
1 64387U 25127T   26019.27420128  .00029613  00000+0  10809-2 0  9999
2 64387  43.0024  98.5016 0001311 244.9742 115.0974 15.27591172 34914
STARLINK-34198          
1 64388U 25127U   26019.20753503  .00024406  00000+0  89331-3 0  9991
2 64388  43.0030  98.8667 0001371 284.6229  75.4470 15.27586164 34908
STARLINK-34279          
1 64389U 25127V   26019.27049620  .00022327  00000+0  81813-3 0  9994
2 64389  43.0003  99.3450 0000943 235.6860 124.3902 15.27591088 34901
STARLINK-34292          
1 64390U 25127W   26019.24865400  .00030336  00000+0  11070-2 0  9991
2 64390  43.0001  99.1776 0001154 291.1142  68.9587 15.27591529 34907
STARLINK-34278          
1 64391U 25127X   26019.21267214  .00021507  00000+0  78871-3 0  9991
2 64391  43.0029  98.9018 0001422 274.8445  85.2244 15.27583129 34905
STARLINK-33802          
1 64392U 25127Y   26019.19483380  .00030002  00000+0  10951-2 0  9997
2 64392  43.0035  99.6408 0000998 268.3856  91.6881 15.27587885 34940
ZHANGHENG 1-02 (CSES-2) 
1 64393U 25128A   26019.30332855 -.00000071  00000+0 -14522-6 0  9999
2 64393  97.3389 149.7256 0012058 276.1772  83.8089 15.20823207 33291
STARLINK-34419          
1 64412U 25129A   26019.22142090  .00002387  00000+0  20771-3 0  9993
2 64412  69.9998 199.3269 0002638 280.7892  79.2970 14.98342243 33890
STARLINK-34275          
1 64413U 25129B   26018.93353370  .00025960  00000+0  21656-2 0  9990
2 64413  70.0003 199.9360 0004583 223.0600 137.0201 14.98501631 33839
STARLINK-34225          
1 64414U 25129C   26019.33335648  .00066878  00000+0  55643-2 0  9990
2 64414  69.9998 199.0963 0002588 268.3937 290.2984 14.98296726  5686
STARLINK-34422          
1 64415U 25129D   26019.20889621  .00002485  00000+0  21593-3 0  9994
2 64415  70.0002 199.2936 0002408 272.2850  87.8033 14.98334117 33815
STARLINK-34514          
1 64416U 25129E   26019.23809281  .00002657  00000+0  23031-3 0  9992
2 64416  70.0002 198.9948 0002591 266.2096  93.8766 14.98346265 33887
STARLINK-34487          
1 64417U 25129F   26019.33335648  .00066708  00000+0  55485-2 0  9999
2 64417  70.0001 198.7758 0002714 268.1388 223.1418 14.98309296  5734
